start=new Date('2022-06-25T00:00:00.000Z').valueOf();
sats=[{"MEAN_ANOMALY":"342.6090","NORAD_CAT_ID":"48017","CLASSIFICATION_TYPE":"U","OBJECT_ID":"2021-024AS","BSTAR":"0.00044709000000","ELEMENT_SET_NO":"999","COUNTRY_CODE":"US","APOAPSIS":"305.758","REF_FRAME":"TEME","MEAN_MOTION_DDOT":"0.0000175830000","GP_ID":"206787788","TLE_LINE2":"2 48017  53.0415 208.7349 0005050  17.5108 342.6090 15.89964551 71628","SEMIMAJOR_AXIS":"6680.519","CENTER_NAME":"EARTH","FILE":"3501798","ARG_OF_PERICENTER":"17.5108","PERIAPSIS":"299.010","EPOCH":"2022-06-24T13:53:20.891328","RCS_SIZE":"LARGE","MEAN_MOTION_DOT":"0.00133649","TIME_SYSTEM":"UTC","LAUNCH_DATE":"2021-03-24","TLE_LINE1":"1 48017U 21024AS  22175.57871402  .00133649  17583-4  44709-3 0  9991","PERIOD":"90.568","RA_OF_ASC_NODE":"208.7349","MEAN_ELEMENT_THEORY":"SGP4","INCLINATION":"53.0415","REV_AT_EPOCH":"7162","DECAY_DATE":null,"EPHEMERIS_TYPE":"0","OBJECT_NAME":"STARLINK-2239","SITE":"AFETR","MEAN_MOTION":"15.89964551","ECCENTRICITY":"0.00050500","OBJECT_TYPE":"PAYLOAD"},{"OBJECT_TYPE":"PAYLOAD","MEAN_MOTION":"15.06394741","ECCENTRICITY":"0.00013840","SITE":"AFETR","EPHEMERIS_TYPE":"0","DECAY_DATE":null,"OBJECT_NAME":"STARLINK-2282","RA_OF_ASC_NODE":"280.7371","PERIOD":"95.592","MEAN_ELEMENT_THEORY":"SGP4","TLE_LINE1":"1 48018U 21024AT  22175.56136675  .00002202  00000-0  16671-3 0  9996","REV_AT_EPOCH":"7067","INCLINATION":"53.0557","MEAN_MOTION_DOT":"0.00002202","TIME_SYSTEM":"UTC","LAUNCH_DATE":"2021-03-24","EPOCH":"2022-06-24T13:28:22.087200","RCS_SIZE":"LARGE","FILE":"3501501","PERIAPSIS":"546.271","ARG_OF_PERICENTER":"65.8623","CENTER_NAME":"EARTH","GP_ID":"206755378","MEAN_MOTION_DDOT":"0.0000000000000","SEMIMAJOR_AXIS":"6925.365","TLE_LINE2":"2 48018  53.0557 280.7371 0001384  65.8623 294.2510 15.06394741 70675","REF_FRAME":"TEME","BSTAR":"0.00016671000000","ELEMENT_SET_NO":"999","OBJECT_ID":"2021-024AT","APOAPSIS":"548.188","COUNTRY_CODE":"US","CLASSIFICATION_TYPE":"U","NORAD_CAT_ID":"48018","MEAN_ANOMALY":"294.2510"},{"FILE":"3501798","ARG_OF_PERICENTER":"58.1453","PERIAPSIS":"546.223","EPOCH":"2022-06-24T13:50:54.714624","RCS_SIZE":"LARGE","MEAN_MOTION_DOT":"-0.00000417","LAUNCH_DATE":"2021-03-24","TIME_SYSTEM":"UTC","TLE_LINE1":"1 48019U 21024AU  22175.57702216 -.00000417  00000-0 -91261-5 0  9996","RA_OF_ASC_NODE":"270.4657","PERIOD":"95.593","MEAN_ELEMENT_THEORY":"SGP4","INCLINATION":"53.0539","REV_AT_EPOCH":"7075","DECAY_DATE":null,"EPHEMERIS_TYPE":"0","OBJECT_NAME":"STARLINK-2285","SITE":"AFETR","MEAN_MOTION":"15.06383626","ECCENTRICITY":"0.00015030","OBJECT_TYPE":"PAYLOAD","MEAN_ANOMALY":"301.9682","NORAD_CAT_ID":"48019","CLASSIFICATION_TYPE":"U","OBJECT_ID":"2021-024AU","BSTAR":"-0.00000912610000","ELEMENT_SET_NO":"999","COUNTRY_CODE":"US","APOAPSIS":"548.305","REF_FRAME":"TEME","MEAN_MOTION_DDOT":"0.0000000000000","GP_ID":"206786787","TLE_LINE2":"2 48019  53.0539 270.4657 0001503  58.1453 301.9682 15.06383626 70753","SEMIMAJOR_AXIS":"6925.399","CENTER_NAME":"EARTH"},{"CENTER_NAME":"EARTH","REF_FRAME":"TEME","GP_ID":"206788038","MEAN_MOTION_DDOT":"0.0000000000000","SEMIMAJOR_AXIS":"6925.395","TLE_LINE2":"2 48020  53.0554 225.9677 0001729  56.6324 303.4830 15.06384836 71374","CLASSIFICATION_TYPE":"U","ELEMENT_SET_NO":"999","BSTAR":"-0.00005208500000","OBJECT_ID":"2021-024AV","APOAPSIS":"548.457","COUNTRY_CODE":"US","MEAN_ANOMALY":"303.4830","NORAD_CAT_ID":"48020","MEAN_MOTION":"15.06384836","ECCENTRICITY":"0.00017290","OBJECT_TYPE":"PAYLOAD","EPHEMERIS_TYPE":"0","DECAY_DATE":null,"OBJECT_NAME":"STARLINK-2294","SITE":"AFETR","MEAN_MOTION_DOT":"-0.00001057","LAUNCH_DATE":"2021-03-24","TIME_SYSTEM":"UTC","MEAN_ELEMENT_THEORY":"SGP4","PERIOD":"95.593","RA_OF_ASC_NODE":"225.9677","TLE_LINE1":"1 48020U 21024AV  22175.55356644 -.00001057  00000-0 -52085-4 0  9997","REV_AT_EPOCH":"7137","INCLINATION":"53.0554","FILE":"3501798","PERIAPSIS":"546.063","ARG_OF_PERICENTER":"56.6324","EPOCH":"2022-06-24T13:17:08.140416","RCS_SIZE":"LARGE"},{"GP_ID":"206755628","MEAN_MOTION_DDOT":"0.0000000000000","SEMIMAJOR_AXIS":"6925.341","TLE_LINE2":"2 48021  53.0548 231.1252 0001538  54.3991 305.7141 15.06402327 71308","REF_FRAME":"TEME","CENTER_NAME":"EARTH","NORAD_CAT_ID":"48021","MEAN_ANOMALY":"305.7141","ELEMENT_SET_NO":"999","BSTAR":"0.00007906700000","OBJECT_ID":"2021-024AW","APOAPSIS":"548.272","COUNTRY_CODE":"US","CLASSIFICATION_TYPE":"U","SITE":"AFETR","EPHEMERIS_TYPE":"0","DECAY_DATE":null,"OBJECT_NAME":"STARLINK-2301","OBJECT_TYPE":"PAYLOAD","MEAN_MOTION":"15.06402327","ECCENTRICITY":"0.00015380","EPOCH":"2022-06-24T10:23:53.051424","RCS_SIZE":"LARGE","FILE":"3501501","PERIAPSIS":"546.141","ARG_OF_PERICENTER":"54.3991","MEAN_ELEMENT_THEORY":"SGP4","PERIOD":"95.592","RA_OF_ASC_NODE":"231.1252","TLE_LINE1":"1 48021U 21024AW  22175.43325291  .00000896  00000-0  79067-4 0  9996","REV_AT_EPOCH":"7130","INCLINATION":"53.0548","MEAN_MOTION_DOT":"0.00000896","LAUNCH_DATE":"2021-03-24","TIME_SYSTEM":"UTC"},{"MEAN_ANOMALY":"282.1345","NORAD_CAT_ID":"48022","CLASSIFICATION_TYPE":"U","BSTAR":"0.00025175000000","ELEMENT_SET_NO":"999","OBJECT_ID":"2021-024AX","APOAPSIS":"548.250","COUNTRY_CODE":"US","REF_FRAME":"TEME","GP_ID":"206787038","MEAN_MOTION_DDOT":"0.0000000000000","SEMIMAJOR_AXIS":"6925.343","TLE_LINE2":"2 48022  53.0548 290.6750 0001504  77.9812 282.1345 15.06401685 70532","CENTER_NAME":"EARTH","FILE":"3501798","PERIAPSIS":"546.167","ARG_OF_PERICENTER":"77.9812","EPOCH":"2022-06-24T14:14:49.945632","RCS_SIZE":"LARGE","MEAN_MOTION_DOT":"0.00003470","LAUNCH_DATE":"2021-03-24","TIME_SYSTEM":"UTC","PERIOD":"95.592","RA_OF_ASC_NODE":"290.6750","MEAN_ELEMENT_THEORY":"SGP4","TLE_LINE1":"1 48022U 21024AX  22175.59363363  .00003470  00000-0  25175-3 0  9997","REV_AT_EPOCH":"7053","INCLINATION":"53.0548","EPHEMERIS_TYPE":"0","DECAY_DATE":null,"OBJECT_NAME":"STARLINK-2298","SITE":"AFETR","MEAN_MOTION":"15.06401685","ECCENTRICITY":"0.00015040","OBJECT_TYPE":"PAYLOAD"},{"REF_FRAME":"TEME","GP_ID":"206787288","MEAN_MOTION_DDOT":"0.0000000000000","SEMIMAJOR_AXIS":"6925.378","TLE_LINE2":"2 48023  53.0558 289.8565 0001321  78.6467 281.4670 15.06390294 70557","CENTER_NAME":"EARTH","MEAN_ANOMALY":"281.4670","NORAD_CAT_ID":"48023","CLASSIFICATION_TYPE":"U","BSTAR":"0.00006962900000","ELEMENT_SET_NO":"999","OBJECT_ID":"2021-024AY","APOAPSIS":"548.158","COUNTRY_CODE":"US","EPHEMERIS_TYPE":"0","DECAY_DATE":null,"OBJECT_NAME":"STARLINK-2292","SITE":"AFETR","MEAN_MOTION":"15.06390294","ECCENTRICITY":"0.00013210","OBJECT_TYPE":"PAYLOAD","FILE":"3501798","PERIAPSIS":"546.328","ARG_OF_PERICENTER":"78.6467","EPOCH":"2022-06-24T17:09:56.532960","RCS_SIZE":"LARGE","MEAN_MOTION_DOT":"0.00000756","LAUNCH_DATE":"2021-03-24","TIME_SYSTEM":"UTC","RA_OF_ASC_NODE":"289.8565","PERIOD":"95.593","MEAN_ELEMENT_THEORY":"SGP4","TLE_LINE1":"1 48023U 21024AY  22175.71523765  .00000756  00000-0  69629-4 0  9993","REV_AT_EPOCH":"7055","INCLINATION":"53.0558"},{"OBJECT_TYPE":"PAYLOAD","ECCENTRICITY":"0.00013180","MEAN_MOTION":"15.06382830","SITE":"AFETR","OBJECT_NAME":"STARLINK-2278","EPHEMERIS_TYPE":"0","DECAY_DATE":null,"REV_AT_EPOCH":"7041","INCLINATION":"53.0553","PERIOD":"95.593","MEAN_ELEMENT_THEORY":"SGP4","RA_OF_ASC_NODE":"295.2293","TLE_LINE1":"1 48026U 21024BB  22175.62815991 -.00000045  00000-0  15896-4 0  9990","LAUNCH_DATE":"2021-03-24","TIME_SYSTEM":"UTC","MEAN_MOTION_DOT":"-0.00000045","RCS_SIZE":"LARGE","EPOCH":"2022-06-24T15:04:33.016224","PERIAPSIS":"546.353","ARG_OF_PERICENTER":"83.5207","FILE":"3501798","CENTER_NAME":"EARTH","SEMIMAJOR_AXIS":"6925.401","TLE_LINE2":"2 48026  53.0553 295.2293 0001318  83.5207 276.5932 15.06382830 70415","GP_ID":"206787539","MEAN_MOTION_DDOT":"0.0000000000000","REF_FRAME":"TEME","APOAPSIS":"548.179","COUNTRY_CODE":"US","BSTAR":"0.00001589600000","ELEMENT_SET_NO":"999","OBJECT_ID":"2021-024BB","CLASSIFICATION_TYPE":"U","NORAD_CAT_ID":"48026","MEAN_ANOMALY":"276.5932"},{"SITE":"AFETR","OBJECT_NAME":"STARLINK-2300","EPHEMERIS_TYPE":"0","DECAY_DATE":null,"OBJECT_TYPE":"PAYLOAD","ECCENTRICITY":"0.00013850","MEAN_MOTION":"15.06392907","RCS_SIZE":"LARGE","EPOCH":"2022-06-24T14:06:49.409568","PERIAPSIS":"546.276","ARG_OF_PERICENTER":"88.7938","FILE":"3501798","REV_AT_EPOCH":"7075","INCLINATION":"53.0540","RA_OF_ASC_NODE":"270.4175","PERIOD":"95.593","MEAN_ELEMENT_THEORY":"SGP4","TLE_LINE1":"1 48027U 21024BC  22175.58807187 -.00000072  00000-0  14071-4 0  9998","LAUNCH_DATE":"2021-03-24","TIME_SYSTEM":"UTC","MEAN_MOTION_DOT":"-0.00000072","SEMIMAJOR_AXIS":"6925.370","TLE_LINE2":"2 48027  53.0540 270.4175 0001385  88.7938 271.3209 15.06392907 70751","GP_ID":"206787789","MEAN_MOTION_DDOT":"0.0000000000000","REF_FRAME":"TEME","CENTER_NAME":"EARTH","NORAD_CAT_ID":"48027","MEAN_ANOMALY":"271.3209","APOAPSIS":"548.194","COUNTRY_CODE":"US","ELEMENT_SET_NO":"999","BSTAR":"0.00001407100000","OBJECT_ID":"2021-024BC","CLASSIFICATION_TYPE":"U"},{"FILE":"3501798","ARG_OF_PERICENTER":"59.5231","PERIAPSIS":"546.055","EPOCH":"2022-06-24T20:05:50.013024","RCS_SIZE":"LARGE","MEAN_MOTION_DOT":"0.00000736","LAUNCH_DATE":"2021-03-24","TIME_SYSTEM":"UTC","TLE_LINE1":"1 48028U 21024BD  22175.83738441  .00000736  00000-0  68301-4 0  9994","RA_OF_ASC_NODE":"224.6966","PERIOD":"95.593","MEAN_ELEMENT_THEORY":"SGP4","INCLINATION":"53.0541","REV_AT_EPOCH":"7147","DECAY_DATE":null,"EPHEMERIS_TYPE":"0","OBJECT_NAME":"STARLINK-2264","SITE":"AFETR","MEAN_MOTION":"15.06391749","ECCENTRICITY":"0.00017090","OBJECT_TYPE":"PAYLOAD","MEAN_ANOMALY":"300.5926","NORAD_CAT_ID":"48028","CLASSIFICATION_TYPE":"U","OBJECT_ID":"2021-024BD","BSTAR":"0.00006830100000","ELEMENT_SET_NO":"999","COUNTRY_CODE":"US","APOAPSIS":"548.422","REF_FRAME":"TEME","MEAN_MOTION_DDOT":"0.0000000000000","GP_ID":"206786538","TLE_LINE2":"2 48028  53.0541 224.6966 0001709  59.5231 300.5926 15.06391749 71478","SEMIMAJOR_AXIS":"6925.374","CENTER_NAME":"EARTH"}];
